{
  "norad_id": 66058,
  "name": "STARLINK-35552",
  "history": [
    {
      "epoch": "2026-03-28T21:08:02.710752Z",
      "apogee_km": 476.09710188034296,
      "perigee_km": 474.28097048075415,
      "latitude_deg": 1.1246690872775278e-05,
      "longitude_deg": 10.373031577391885,
      "height_km": 476.1729060487091,
      "semi_major_axis_km": 6853.326036180548,
      "eccentricity": 0.0001325,
      "inclination_deg": 53.1573,
      "raan_deg": 153.679,
      "arg_perigee_deg": 95.4441,
      "mean_anomaly_deg": 264.6711,
      "mean_motion_rev_day": 15.30208719
    },
    {
      "epoch": "2026-03-28T21:08:02.711616Z",
      "apogee_km": 476.0967592140396,
      "perigee_km": 474.2813131470566,
      "latitude_deg": 1.5840063548962507e-05,
      "longitude_deg": 10.373031390125888,
      "height_km": 476.17287353896586,
      "semi_major_axis_km": 6853.326036180548,
      "eccentricity": 0.00013245,
      "inclination_deg": 53.1573,
      "raan_deg": 153.679,
      "arg_perigee_deg": 95.4441,
      "mean_anomaly_deg": 264.6711,
      "mean_motion_rev_day": 15.30208719
    },
    {
      "epoch": "2026-03-30T04:29:06.778464Z",
      "apogee_km": 477.3523223235643,
      "perigee_km": 472.9455224097637,
      "latitude_deg": 5.615730890529075e-05,
      "longitude_deg": -107.24972823805464,
      "height_km": 475.692073868284,
      "semi_major_axis_km": 6853.285922366664,
      "eccentricity": 0.00032151,
      "inclination_deg": 53.1584,
      "raan_deg": 147.6107,
      "arg_perigee_deg": 80.8101,
      "mean_anomaly_deg": 279.3264,
      "mean_motion_rev_day": 15.30222154
    },
    {
      "epoch": "2026-03-30T13:53:25.916352Z",
      "apogee_km": 476.1435318084132,
      "perigee_km": 474.2702387908057,
      "latitude_deg": 6.808654760204854e-05,
      "longitude_deg": 109.46447729810201,
      "height_km": 476.0649986904746,
      "semi_major_axis_km": 6853.343885299609,
      "eccentricity": 0.00013667,
      "inclination_deg": 53.1578,
      "raan_deg": 145.7909,
      "arg_perigee_deg": 87.5778,
      "mean_anomaly_deg": 272.538,
      "mean_motion_rev_day": 15.30202741
    },
    {
      "epoch": "2026-03-30T20:09:39.243456Z",
      "apogee_km": 476.26412081125363,
      "perigee_km": 474.263476050176,
      "latitude_deg": -1.4516213168049018e-05,
      "longitude_deg": 13.93777156285677,
      "height_km": 476.25806189839295,
      "semi_major_axis_km": 6853.4007984307145,
      "eccentricity": 0.00014596,
      "inclination_deg": 53.1575,
      "raan_deg": 144.5773,
      "arg_perigee_deg": 95.5483,
      "mean_anomaly_deg": 264.5684,
      "mean_motion_rev_day": 15.3018368
    },
    {
      "epoch": "2026-03-31T10:16:09.251904Z",
      "apogee_km": 476.1777569443939,
      "perigee_km": 474.4160132298939,
      "latitude_deg": -1.745338146775067e-05,
      "longitude_deg": 159.00292620184024,
      "height_km": 476.2842700708807,
      "semi_major_axis_km": 6853.433885087144,
      "eccentricity": 0.00012853,
      "inclination_deg": 53.1573,
      "raan_deg": 141.8469,
      "arg_perigee_deg": 95.8395,
      "mean_anomaly_deg": 264.2752,
      "mean_motion_rev_day": 15.30172599
    }
  ]
}